ISS (ZARYA)             
1 25544U 98067A   26023.72220588  .00016677  00000+0  30360-3 0  9998
2 25544  51.6325 294.6353 0007776  51.0046 309.1634 15.49596283549364
CSS (TIANHE)            
1 48274U 21035A   26023.90190285  .00028661  00000+0  33398-3 0  9994
2 48274  41.4667 120.4029 0010179 347.3565  12.7018 15.60968307270614
ISS (NAUKA)             
1 49044U 21066A   26023.72220588  .00016677  00000+0  30360-3 0  9994
2 49044  51.6325 294.6353 0007776  51.0046 309.1634 15.49596283230441
CSS (WENTIAN)           
1 53239U 22085A   26023.90190285  .00028661  00000+0  33398-3 0  9997
2 53239  41.4667 120.4029 0010179 347.3565  12.7018 15.60968307173848
CSS (MENGTIAN)          
1 54216U 22143A   26023.90190285  .00028661  00000+0  33398-3 0  9998
2 54216  41.4667 120.4029 0010179 347.3565  12.7018 15.60968307158645
PROGRESS-MS 31          
1 64751U 25146A   26023.72220588  .00016677  00000+0  30360-3 0  9999
2 64751  51.6325 294.6353 0007776  51.0046 309.1634 15.49596283  6758
TIANZHOU-9              
1 64786U 25149A   26023.90190285  .00028661  00000+0  33398-3 0  9990
2 64786  41.4667 120.4029 0010179 347.3565  12.7018 15.60968307255309
DRAGON CRS-33           
1 65304U 25186A   26023.72220588  .00016677  00000+0  30360-3 0  9998
2 65304  51.6325 294.6353 0007776  51.0046 309.1634 15.49596283   117
PROGRESS-MS 32          
1 65586U 25204A   26023.72220588  .00016677  00000+0  30360-3 0  9991
2 65586  51.6325 294.6353 0007776  51.0046 309.1634 15.49596283   276
CYGNUS NG-23            
1 65616U 25208A   26023.72220588  .00016677  00000+0  30360-3 0  9999
2 65616  51.6325 294.6353 0007776  51.0046 309.1634 15.49596283   225
DRAGONFLY               
1 65729U 98067XH  26023.98538275  .01040617  55703-3  18397-2 0  9991
2 65729  51.6137 276.0104 0007550 182.6666 177.4305 16.01353071 19853
